start=new Date('2022-06-02T00:00:00.000Z').valueOf();
sats=[{"MEAN_MOTION_DOT":"0.00003220","CENTER_NAME":"EARTH","RA_OF_ASC_NODE":"268.1150","INCLINATION":"53.0559","RCS_SIZE":"LARGE","TIME_SYSTEM":"UTC","FILE":"3476255","MEAN_MOTION":"15.06390168","SITE":"AFETR","DECAY_DATE":null,"OBJECT_NAME":"STARLINK-1027","EPOCH":"2022-06-01T17:02:16.640448","REF_FRAME":"TEME","EPHEMERIS_TYPE":"0","REV_AT_EPOCH":"14092","OBJECT_ID":"2019-074V","LAUNCH_DATE":"2019-11-11","OBJECT_TYPE":"PAYLOAD","TLE_LINE2":"2 44732  53.0559 268.1150 0001549  64.8223 295.2927 15.06390168140927","ARG_OF_PERICENTER":"64.8223","BSTAR":"0.00023506000000","PERIOD":"95.593","APOAPSIS":"548.316","CLASSIFICATION_TYPE":"U","PERIAPSIS":"546.171","MEAN_MOTION_DDOT":"0.0000000000000","TLE_LINE1":"1 44732U 19074V   22152.70991482  .00003220  00000-0  23506-3 0  9999","ECCENTRICITY":"0.00015490","SEMIMAJOR_AXIS":"6925.379","GP_ID":"205122004","COUNTRY_CODE":"US","MEAN_ANOMALY":"295.2927","MEAN_ELEMENT_THEORY":"SGP4","ELEMENT_SET_NO":"999","NORAD_CAT_ID":"44732"},{"INCLINATION":"53.0541","RCS_SIZE":"LARGE","TIME_SYSTEM":"UTC","MEAN_MOTION":"15.06384491","FILE":"3476255","MEAN_MOTION_DOT":"0.00006575","CENTER_NAME":"EARTH","RA_OF_ASC_NODE":"249.3190","OBJECT_NAME":"STARLINK-1028","EPOCH":"2022-06-01T10:37:27.463872","REF_FRAME":"TEME","EPHEMERIS_TYPE":"0","REV_AT_EPOCH":"14116","OBJECT_ID":"2019-074W","LAUNCH_DATE":"2019-11-11","SITE":"AFETR","DECAY_DATE":null,"BSTAR":"0.00046006000000","PERIOD":"95.593","APOAPSIS":"548.409","CLASSIFICATION_TYPE":"U","PERIAPSIS":"546.114","OBJECT_TYPE":"PAYLOAD","TLE_LINE2":"2 44733  53.0541 249.3190 0001657  53.8060 306.3082 15.06384491141166","ARG_OF_PERICENTER":"53.8060","COUNTRY_CODE":"US","MEAN_ANOMALY":"306.3082","MEAN_ELEMENT_THEORY":"SGP4","ELEMENT_SET_NO":"999","NORAD_CAT_ID":"44733","TLE_LINE1":"1 44733U 19074W   22152.44267898  .00006575  00000-0  46006-3 0  9994","ECCENTRICITY":"0.00016570","MEAN_MOTION_DDOT":"0.0000000000000","SEMIMAJOR_AXIS":"6925.396","GP_ID":"205123256"},{"RA_OF_ASC_NODE":"169.2603","CENTER_NAME":"EARTH","MEAN_MOTION_DOT":"0.00000872","MEAN_MOTION":"15.06382675","FILE":"3476255","INCLINATION":"53.0541","TIME_SYSTEM":"UTC","RCS_SIZE":"LARGE","DECAY_DATE":null,"SITE":"AFETR","OBJECT_ID":"2019-074X","REV_AT_EPOCH":"14226","LAUNCH_DATE":"2019-11-11","EPOCH":"2022-06-01T10:58:42.643200","EPHEMERIS_TYPE":"0","REF_FRAME":"TEME","OBJECT_NAME":"STARLINK-1029","ARG_OF_PERICENTER":"53.3638","TLE_LINE2":"2 44734  53.0541 169.2603 0001599  53.3638 306.7498 15.06382675142266","OBJECT_TYPE":"PAYLOAD","PERIAPSIS":"546.159","CLASSIFICATION_TYPE":"U","APOAPSIS":"548.374","PERIOD":"95.593","BSTAR":"0.00007744300000","SEMIMAJOR_AXIS":"6925.402","GP_ID":"205122983","MEAN_MOTION_DDOT":"0.0000000000000","TLE_LINE1":"1 44734U 19074X   22152.45743800  .00000872  00000-0  77443-4 0  9992","ECCENTRICITY":"0.00015990","ELEMENT_SET_NO":"999","NORAD_CAT_ID":"44734","MEAN_ANOMALY":"306.7498","MEAN_ELEMENT_THEORY":"SGP4","COUNTRY_CODE":"US"},{"PERIAPSIS":"546.114","CLASSIFICATION_TYPE":"U","APOAPSIS":"548.329","PERIOD":"95.592","BSTAR":"0.00030443000000","ARG_OF_PERICENTER":"60.0764","TLE_LINE2":"2 44735  53.0560 268.6816 0001599  60.0764 300.0384 15.06397383140905","OBJECT_TYPE":"PAYLOAD","ELEMENT_SET_NO":"999","NORAD_CAT_ID":"44735","MEAN_ANOMALY":"300.0384","MEAN_ELEMENT_THEORY":"SGP4","COUNTRY_CODE":"US","SEMIMAJOR_AXIS":"6925.357","GP_ID":"205121755","MEAN_MOTION_DDOT":"0.0000000000000","TLE_LINE1":"1 44735U 19074Y   22152.58459054  .00004255  00000-0  30443-3 0  9999","ECCENTRICITY":"0.00015990","FILE":"3476255","MEAN_MOTION":"15.06397383","INCLINATION":"53.0560","TIME_SYSTEM":"UTC","RCS_SIZE":"LARGE","RA_OF_ASC_NODE":"268.6816","MEAN_MOTION_DOT":"0.00004255","CENTER_NAME":"EARTH","REV_AT_EPOCH":"14090","OBJECT_ID":"2019-074Y","LAUNCH_DATE":"2019-11-11","EPOCH":"2022-06-01T14:01:48.622656","REF_FRAME":"TEME","EPHEMERIS_TYPE":"0","OBJECT_NAME":"STARLINK-1030","DECAY_DATE":null,"SITE":"AFETR"},{"COUNTRY_CODE":"US","NORAD_CAT_ID":"44736","ELEMENT_SET_NO":"999","MEAN_ELEMENT_THEORY":"SGP4","MEAN_ANOMALY":"293.8135","TLE_LINE1":"1 44736U 19074Z   22152.66567787  .00006094  00000-0  42755-3 0  9994","ECCENTRICITY":"0.00015540","MEAN_MOTION_DDOT":"0.0000000000000","GP_ID":"205122504","SEMIMAJOR_AXIS":"6925.319","PERIOD":"95.592","BSTAR":"0.00042755000000","PERIAPSIS":"546.107","APOAPSIS":"548.260","CLASSIFICATION_TYPE":"U","OBJECT_TYPE":"PAYLOAD","ARG_OF_PERICENTER":"66.3017","TLE_LINE2":"2 44736  53.0542 268.3306 0001554  66.3017 293.8135 15.06409798140927","REF_FRAME":"TEME","EPHEMERIS_TYPE":"0","EPOCH":"2022-06-01T15:58:34.567968","OBJECT_NAME":"STARLINK-1031","LAUNCH_DATE":"2019-11-11","OBJECT_ID":"2019-074Z","REV_AT_EPOCH":"14092","SITE":"AFETR","DECAY_DATE":null,"RCS_SIZE":"LARGE","TIME_SYSTEM":"UTC","INCLINATION":"53.0542","FILE":"3476255","MEAN_MOTION":"15.06409798","CENTER_NAME":"EARTH","MEAN_MOTION_DOT":"0.00006094","RA_OF_ASC_NODE":"268.3306"},{"COUNTRY_CODE":"US","NORAD_CAT_ID":"44737","ELEMENT_SET_NO":"999","MEAN_ELEMENT_THEORY":"SGP4","MEAN_ANOMALY":"307.2594","TLE_LINE1":"1 44737U 19074AA  22152.67673105  .00004158  00000-0  29784-3 0  9994","MEAN_MOTION_DDOT":"0.0000000000000","ECCENTRICITY":"0.00014310","GP_ID":"205122757","SEMIMAJOR_AXIS":"6925.333","PERIOD":"95.592","BSTAR":"0.00029784000000","PERIAPSIS":"546.207","APOAPSIS":"548.189","CLASSIFICATION_TYPE":"U","OBJECT_TYPE":"PAYLOAD","ARG_OF_PERICENTER":"52.8526","TLE_LINE2":"2 44737  53.0542 268.2803 0001431  52.8526 307.2594 15.06405033140925","REF_FRAME":"TEME","EPHEMERIS_TYPE":"0","EPOCH":"2022-06-01T16:14:29.562720","OBJECT_NAME":"STARLINK-1032","LAUNCH_DATE":"2019-11-11","REV_AT_EPOCH":"14092","OBJECT_ID":"2019-074AA","SITE":"AFETR","DECAY_DATE":null,"TIME_SYSTEM":"UTC","RCS_SIZE":"LARGE","INCLINATION":"53.0542","MEAN_MOTION":"15.06405033","FILE":"3476255","MEAN_MOTION_DOT":"0.00004158","CENTER_NAME":"EARTH","RA_OF_ASC_NODE":"268.2803"},{"OBJECT_TYPE":"PAYLOAD","ARG_OF_PERICENTER":"57.6137","TLE_LINE2":"2 44738  53.0551 268.6415 0001708  57.6137 302.5017 15.06400532140902","PERIOD":"95.592","BSTAR":"0.00014805000000","PERIAPSIS":"546.029","APOAPSIS":"548.395","CLASSIFICATION_TYPE":"U","ECCENTRICITY":"0.00017080","TLE_LINE1":"1 44738U 19074AB  22152.59564155  .00001924  00000-0  14805-3 0  9996","MEAN_MOTION_DDOT":"0.0000000000000","GP_ID":"205123483","SEMIMAJOR_AXIS":"6925.347","COUNTRY_CODE":"US","ELEMENT_SET_NO":"999","NORAD_CAT_ID":"44738","MEAN_ANOMALY":"302.5017","MEAN_ELEMENT_THEORY":"SGP4","MEAN_MOTION_DOT":"0.00001924","CENTER_NAME":"EARTH","RA_OF_ASC_NODE":"268.6415","INCLINATION":"53.0551","RCS_SIZE":"LARGE","TIME_SYSTEM":"UTC","FILE":"3476255","MEAN_MOTION":"15.06400532","SITE":"AFETR","DECAY_DATE":null,"EPOCH":"2022-06-01T14:17:43.429920","EPHEMERIS_TYPE":"0","REF_FRAME":"TEME","OBJECT_NAME":"STARLINK-1033","REV_AT_EPOCH":"14090","OBJECT_ID":"2019-074AB","LAUNCH_DATE":"2019-11-11"},{"PERIAPSIS":"522.661","APOAPSIS":"524.320","CLASSIFICATION_TYPE":"U","PERIOD":"95.101","BSTAR":"0.00079053000000","ARG_OF_PERICENTER":"341.9480","TLE_LINE2":"2 44739  52.9972 259.2471 0001202 341.9480  18.1469 15.14173543140993","OBJECT_TYPE":"PAYLOAD","ELEMENT_SET_NO":"999","NORAD_CAT_ID":"44739","MEAN_ANOMALY":"18.1469","MEAN_ELEMENT_THEORY":"SGP4","COUNTRY_CODE":"US","SEMIMAJOR_AXIS":"6901.626","GP_ID":"205122255","TLE_LINE1":"1 44739U 19074AC  22152.58009345  .00014317  00000-0  79053-3 0  9997","ECCENTRICITY":"0.00012020","MEAN_MOTION_DDOT":"0.0000000000000","MEAN_MOTION":"15.14173543","FILE":"3476255","INCLINATION":"52.9972","TIME_SYSTEM":"UTC","RCS_SIZE":"LARGE","RA_OF_ASC_NODE":"259.2471","CENTER_NAME":"EARTH","MEAN_MOTION_DOT":"0.00014317","OBJECT_ID":"2019-074AC","REV_AT_EPOCH":"14099","LAUNCH_DATE":"2019-11-11","EPOCH":"2022-06-01T13:55:20.074080","REF_FRAME":"TEME","EPHEMERIS_TYPE":"0","OBJECT_NAME":"STARLINK-1034","DECAY_DATE":null,"SITE":"AFETR"},{"PERIOD":"95.593","BSTAR":"0.00030552000000","PERIAPSIS":"546.040","APOAPSIS":"548.473","CLASSIFICATION_TYPE":"U","OBJECT_TYPE":"PAYLOAD","ARG_OF_PERICENTER":"61.3046","TLE_LINE2":"2 44740  53.0567 267.9963 0001756  61.3046 298.8119 15.06386021140935","COUNTRY_CODE":"US","NORAD_CAT_ID":"44740","ELEMENT_SET_NO":"999","MEAN_ELEMENT_THEORY":"SGP4","MEAN_ANOMALY":"298.8119","TLE_LINE1":"1 44740U 19074AD  22152.73939968  .00004270  00000-0  30552-3 0  9997","ECCENTRICITY":"0.00017560","MEAN_MOTION_DDOT":"0.0000000000000","GP_ID":"205122005","SEMIMAJOR_AXIS":"6925.391","RCS_SIZE":"LARGE","TIME_SYSTEM":"UTC","INCLINATION":"53.0567","FILE":"3476255","MEAN_MOTION":"15.06386021","CENTER_NAME":"EARTH","MEAN_MOTION_DOT":"0.00004270","RA_OF_ASC_NODE":"267.9963","REF_FRAME":"TEME","EPHEMERIS_TYPE":"0","EPOCH":"2022-06-01T17:44:44.132352","OBJECT_NAME":"STARLINK-1035","LAUNCH_DATE":"2019-11-11","REV_AT_EPOCH":"14093","OBJECT_ID":"2019-074AD","SITE":"AFETR","DECAY_DATE":null},{"COUNTRY_CODE":"US","ELEMENT_SET_NO":"999","NORAD_CAT_ID":"44741","MEAN_ANOMALY":"290.9884","MEAN_ELEMENT_THEORY":"SGP4","TLE_LINE1":"1 44741U 19074AE  22152.68411045  .00002788  00000-0  20594-3 0  9990","ECCENTRICITY":"0.00015740","MEAN_MOTION_DDOT":"0.0000000000000","GP_ID":"205123257","SEMIMAJOR_AXIS":"6925.334","PERIOD":"95.592","BSTAR":"0.00020594000000","PERIAPSIS":"546.109","APOAPSIS":"548.289","CLASSIFICATION_TYPE":"U","OBJECT_TYPE":"PAYLOAD","ARG_OF_PERICENTER":"69.1273","TLE_LINE2":"2 44741  53.0548 268.2327 0001574  69.1273 290.9884 15.06404888140922","EPOCH":"2022-06-01T16:25:07.142880","EPHEMERIS_TYPE":"0","REF_FRAME":"TEME","OBJECT_NAME":"STARLINK-1036","OBJECT_ID":"2019-074AE","REV_AT_EPOCH":"14092","LAUNCH_DATE":"2019-11-11","SITE":"AFETR","DECAY_DATE":null,"INCLINATION":"53.0548","RCS_SIZE":"LARGE","TIME_SYSTEM":"UTC","FILE":"3476255","MEAN_MOTION":"15.06404888","CENTER_NAME":"EARTH","MEAN_MOTION_DOT":"0.00002788","RA_OF_ASC_NODE":"268.2327"}];
